OBJECT_NAME,OBJECT_ID,EPOCH,MEAN_MOTION,ECCENTRICITY,INCLINATION,RA_OF_ASC_NODE,ARG_OF_PERICENTER,MEAN_ANOMALY,EPHEMERIS_TYPE,CLASSIFICATION_TYPE,NORAD_CAT_ID,ELEMENT_SET_NO,REV_AT_EPOCH,BSTAR,MEAN_MOTION_DOT,MEAN_MOTION_DDOT
BEIDOU-3 M14 (C33),2018-072B,2026-05-14T00:51:56.365920,1.86231503,.00066483,56.5980,63.7808,347.7176,12.2477,0,U,43623,999,5201,0,-.37E-6,0
BEIDOU-3 M16 (C35),2018-078A,2026-05-12T13:56:47.591232,1.86232272,.00078803,54.1235,301.2337,39.7391,320.3068,0,U,43647,999,5149,0,-.42E-6,0
BEIDOU-3 M15 (C34),2018-078B,2026-05-14T20:35:46.801248,1.86232411,.00049437,54.1176,301.1547,52.6427,307.3818,0,U,43648,999,5155,0,-.51E-6,0
BEIDOU-3 G1 (C59),2018-085A,2026-05-15T04:56:54.105792,1.00246679,.0009499,2.7848,98.2523,337.0938,31.7776,0,U,43683,999,2773,0,-.1E-5,0
BEIDOU-3 M17 (C36),2018-093A,2026-05-15T00:31:09.504192,1.86228288,.00096822,54.1669,183.4218,290.7181,70.9290,0,U,43706,999,5092,0,.99E-6,0
BEIDOU-3 M18 (C37),2018-093B,2026-05-12T17:37:31.670976,1.86226542,.00073968,54.1678,183.4917,321.8656,38.1678,0,U,43707,999,5087,0,.84E-6,0
BEIDOU-3 IGSO-1 (C38),2019-023A,2026-05-12T18:25:31.496160,1.00250503,.00238565,58.6468,38.0171,234.3090,349.8662,0,U,44204,999,685,0,-.227E-5,0
BEIDOU-2 G8 (C01),2019-027A,2026-05-15T06:35:09.261600,1.00272297,.00107821,1.5739,74.4308,281.2642,120.6393,0,U,44231,999,2575,0,-.233E-5,0
BEIDOU-3 IGSO-2 (C39),2019-035A,2026-05-12T15:41:37.269312,1.00277740,.003968,55.2385,159.1745,215.7907,210.7620,0,U,44337,999,2531,0,-.46E-6,0
BEIDOU-3 M24 (C46),2019-061A,2026-05-14T22:49:54.567264,1.86229259,.00080846,54.3947,183.8491,2.8875,357.2118,0,U,44542,999,4517,0,.98E-6,0
BEIDOU-3 M23 (C45),2019-061B,2026-05-15T02:07:30.054720,1.86227266,.00052452,54.3933,183.8129,342.0059,21.8904,0,U,44543,999,4518,0,.99E-6,0
BEIDOU-3 IGSO-3 (C40),2019-073A,2026-04-30T20:24:33.185376,1.00251230,.00424046,54.8842,281.4069,188.8195,170.9972,0,U,44709,999,2398,0,-.212E-5,0
BEIDOU-3 M22 (C44),2019-078A,2026-05-13T04:18:50.077728,1.86227440,.00071316,53.9691,301.0594,47.8476,312.1989,0,U,44793,999,4399,0,-.45E-6,0
BEIDOU-3 M21 (C43),2019-078B,2026-05-10T02:21:07.454880,1.86228028,.0004992,53.9450,301.1295,44.9662,315.0658,0,U,44794,999,4394,0,-.37E-6,0
BEIDOU-3 M19 (C41),2019-090A,2026-05-14T08:54:55.937664,1.86231675,.00190402,56.5302,63.9086,296.9236,245.2774,0,U,44864,999,4360,0,-.39E-6,0
BEIDOU-3 M20 (C42),2019-090B,2026-05-15T05:29:51.626400,1.86231500,.00167378,56.5328,63.9149,310.0741,176.6927,0,U,44865,999,4360,0,-.42E-6,0
BEIDOU-3 G2 (C60),2020-017A,2026-05-15T02:51:22.993632,1.00272165,.00024839,2.7973,46.8151,9.9475,298.9904,0,U,45344,999,2292,0,-.128E-5,0
BEIDOU-3 G3 (C61),2020-040A,2026-05-15T06:25:25.195872,1.00273975,.00032088,2.3659,67.3554,333.6019,38.9466,0,U,45807,999,2174,0,-.341E-5,0
BEIDOU-3 G4 (C62),2023-066A,2026-05-15T06:33:46.893888,1.00275377,.00035158,0.5301,323.6144,173.6448,334.1924,0,U,56564,999,1106,0,-.268E-5,0
BEIDOU-3 M28 (C50),2023-207A,2026-05-12T07:45:09.075744,1.86229701,.0004245,55.7225,63.5128,330.2096,29.7521,0,U,58654,999,1617,0,-.3E-6,0
BEIDOU-3 M26 (C48),2023-207B,2026-05-13T04:39:58.687200,1.86229676,.00044392,55.7254,63.4698,309.9196,50.0251,0,U,58655,999,1617,0,-.35E-6,0
BEIDOU-3 M25 (C47),2024-168B,2026-05-14T15:13:53.616576,1.86229921,.00030914,54.5046,303.4082,312.9703,49.8050,0,U,61186,999,1116,0,-.5E-6,0
BEIDOU-3 M27 (C49),2024-168C,2026-05-13T08:49:08.338368,1.86230101,.00022414,54.5014,303.4354,43.5716,324.6381,0,U,61187,999,861,0,-.45E-6,0
